{
    "links": {
        "self": "http://www.neowsapp.com/rest/v1/neo/3713006?api_key=iIulBulltgU6a56xZRHN4H3l9WmuAYTsLGpBGhQ2"
    },
    "id": "3713006",
    "neo_reference_id": "3713006",
    "name": "(2015 EU)",
    "designation": "2015 EU",
    "nasa_jpl_url": "http://ssd.jpl.nasa.gov/sbdb.cgi?sstr=3713006",
    "absolute_magnitude_h": 25.8,
    "estimated_diameter": {
        "kilometers": {
            "estimated_diameter_min": 0.0183888672,
            "estimated_diameter_max": 0.0411187571
        },
        "meters": {
            "estimated_diameter_min": 18.388867207,
            "estimated_diameter_max": 41.1187571041
        },
        "miles": {
            "estimated_diameter_min": 0.0114263088,
            "estimated_diameter_max": 0.0255500032
        },
        "feet": {
            "estimated_diameter_min": 60.3309310875,
            "estimated_diameter_max": 134.9040630575
        }
    },
    "is_potentially_hazardous_asteroid": false,
    "close_approach_data": [
        {
            "close_approach_date": "2015-03-12",
            "close_approach_date_full": "2015-Mar-12 02:39",
            "epoch_date_close_approach": 1426127940000,
            "relative_velocity": {
                "kilometers_per_second": "6.5938161018",
                "kilometers_per_hour": "23737.7379666566",
                "miles_per_hour": "14749.7072382262"
            },
            "miss_distance": {
                "astronomical": "0.0619610701",
                "lunar": "24.1028562689",
                "kilometers": "9269244.109880687",
                "miles": "5759641.2117680006"
            },
            "orbiting_body": "Earth"
        }
    ],
    "orbital_data": {
        "orbit_id": "6",
        "orbit_determination_date": "2017-07-04 06:19:06",
        "first_observation_date": "2015-03-10",
        "last_observation_date": "2015-03-28",
        "data_arc_in_days": 18,
        "observations_used": 22,
        "orbit_uncertainty": "8",
        "minimum_orbit_intersection": ".0610756",
        "jupiter_tisserand_invariant": "3.258",
        "epoch_osculation": "2457094.5",
        "eccentricity": ".5701827304168119",
        "semi_major_axis": "2.437776123522729",
        "inclination": "2.605100714199059",
        "ascending_node_longitude": "133.4319622491401",
        "orbital_period": "1390.238001293114",
        "perihelion_distance": "1.047798277267628",
        "perihelion_argument": "34.78816472636127",
        "aphelion_distance": "3.82775396977783",
        "perihelion_time": "2457091.597038171950",
        "mean_anomaly": ".7517175168035571",
        "mean_motion": ".258948467575444",
        "equinox": "J2000",
        "orbit_class": {
            "orbit_class_type": "AMO",
            "orbit_class_description": "Near-Earth asteroid orbits similar to that of 1221 Amor",
            "orbit_class_range": "1.017 AU < q (perihelion) < 1.3 AU"
        }
    },
    "is_sentry_object": false
}